CCSDS_OMM_VERS = 2.0
CREATION_DATE  = 
ORIGINATOR     = 

OBJECT_NAME    = ATLAS CENTAUR 2
OBJECT_ID      = 1963-047A
CENTER_NAME    = EARTH
REF_FRAME      = TEME
TIME_SYSTEM    = UTC
MEAN_ELEMENT_THEORY = SGP/SGP4

EPOCH          = 2026-01-17T13:43:28.847424
MEAN_MOTION    = 14.11905750
ECCENTRICITY   = .05484056
INCLINATION    = 30.3545
RA_OF_ASC_NODE = 121.2805
ARG_OF_PERICENTER = 349.8423
MEAN_ANOMALY   = 9.1473

EPHEMERIS_TYPE = 0
CLASSIFICATION_TYPE = U
NORAD_CAT_ID   = 694
ELEMENT_SET_NO = 999
REV_AT_EPOCH   = 12439
BSTAR          = .14065092E-3
MEAN_MOTION_DOT = .1245E-4
MEAN_MOTION_DDOT = 0

CCSDS_OMM_VERS = 2.0
CREATION_DATE  = 
ORIGINATOR     = 

OBJECT_NAME    = THOR AGENA D R/B
OBJECT_ID      = 1964-002A
CENTER_NAME    = EARTH
REF_FRAME      = TEME
TIME_SYSTEM    = UTC
MEAN_ELEMENT_THEORY = SGP/SGP4

EPOCH          = 2026-01-17T14:05:27.466080
MEAN_MOTION    = 14.33982880
ECCENTRICITY   = .00336473
INCLINATION    = 99.1221
RA_OF_ASC_NODE = 28.1455
ARG_OF_PERICENTER = 48.4111
MEAN_ANOMALY   = 311.9947

EPHEMERIS_TYPE = 0
CLASSIFICATION_TYPE = U
NORAD_CAT_ID   = 733
ELEMENT_SET_NO = 999
REV_AT_EPOCH   = 23097
BSTAR          = .66185778E-4
MEAN_MOTION_DOT = .137E-5
MEAN_MOTION_DDOT = 0

CCSDS_OMM_VERS = 2.0
CREATION_DATE  = 
ORIGINATOR     = 

OBJECT_NAME    = SL-3 R/B
OBJECT_ID      = 1964-053B
CENTER_NAME    = EARTH
REF_FRAME      = TEME
TIME_SYSTEM    = UTC
MEAN_ELEMENT_THEORY = SGP/SGP4

EPOCH          = 2026-01-17T15:20:14.808192
MEAN_MOTION    = 14.61307683
ECCENTRICITY   = .00768465
INCLINATION    = 65.0772
RA_OF_ASC_NODE = 120.9002
ARG_OF_PERICENTER = 308.5278
MEAN_ANOMALY   = 50.8949

EPHEMERIS_TYPE = 0
CLASSIFICATION_TYPE = U
NORAD_CAT_ID   = 877
ELEMENT_SET_NO = 999
REV_AT_EPOCH   = 25933
BSTAR          = .6385185E-4
MEAN_MOTION_DOT = .204E-5
MEAN_MOTION_DDOT = 0

CCSDS_OMM_VERS = 2.0
CREATION_DATE  = 
ORIGINATOR     = 

OBJECT_NAME    = SL-8 R/B
OBJECT_ID      = 1967-045B
CENTER_NAME    = EARTH
REF_FRAME      = TEME
TIME_SYSTEM    = UTC
MEAN_ELEMENT_THEORY = SGP/SGP4

EPOCH          = 2026-01-17T15:23:31.573824
MEAN_MOTION    = 14.45573461
ECCENTRICITY   = .0062855
INCLINATION    = 74.0109
RA_OF_ASC_NODE = 83.4245
ARG_OF_PERICENTER = 103.2452
MEAN_ANOMALY   = 257.5727

EPHEMERIS_TYPE = 0
CLASSIFICATION_TYPE = U
NORAD_CAT_ID   = 2802
ELEMENT_SET_NO = 999
REV_AT_EPOCH   = 8164
BSTAR          = .62376317E-4
MEAN_MOTION_DOT = .198E-5
MEAN_MOTION_DDOT = 0

CCSDS_OMM_VERS = 2.0
CREATION_DATE  = 
ORIGINATOR     = 

OBJECT_NAME    = SL-8 R/B
OBJECT_ID      = 1968-040B
CENTER_NAME    = EARTH
REF_FRAME      = TEME
TIME_SYSTEM    = UTC
MEAN_ELEMENT_THEORY = SGP/SGP4

EPOCH          = 2026-01-17T12:36:10.916640
MEAN_MOTION    = 15.02809745
ECCENTRICITY   = .00263149
INCLINATION    = 74.0310
RA_OF_ASC_NODE = 58.2066
ARG_OF_PERICENTER = 254.8625
MEAN_ANOMALY   = 104.9653

EPHEMERIS_TYPE = 0
CLASSIFICATION_TYPE = U
NORAD_CAT_ID   = 3230
ELEMENT_SET_NO = 999
REV_AT_EPOCH   = 8232
BSTAR          = .23428611E-3
MEAN_MOTION_DOT = .3118E-4
MEAN_MOTION_DDOT = 0

CCSDS_OMM_VERS = 2.0
CREATION_DATE  = 
ORIGINATOR     = 

OBJECT_NAME    = OAO 2
OBJECT_ID      = 1968-110A
CENTER_NAME    = EARTH
REF_FRAME      = TEME
TIME_SYSTEM    = UTC
MEAN_ELEMENT_THEORY = SGP/SGP4

EPOCH          = 2026-01-17T12:35:34.785888
MEAN_MOTION    = 14.47268563
ECCENTRICITY   = .00051403
INCLINATION    = 34.9913
RA_OF_ASC_NODE = 190.8813
ARG_OF_PERICENTER = 153.7656
MEAN_ANOMALY   = 206.3296

EPHEMERIS_TYPE = 0
CLASSIFICATION_TYPE = U
NORAD_CAT_ID   = 3597
ELEMENT_SET_NO = 999
REV_AT_EPOCH   = 1168
BSTAR          = .54425038E-4
MEAN_MOTION_DOT = .183E-5
MEAN_MOTION_DDOT = 0

CCSDS_OMM_VERS = 2.0
CREATION_DATE  = 
ORIGINATOR     = 

OBJECT_NAME    = ISIS 1
OBJECT_ID      = 1969-009A
CENTER_NAME    = EARTH
REF_FRAME      = TEME
TIME_SYSTEM    = UTC
MEAN_ELEMENT_THEORY = SGP/SGP4

EPOCH          = 2026-01-17T09:06:06.723072
MEAN_MOTION    = 11.30379156
ECCENTRICITY   = .17077649
INCLINATION    = 88.4527
RA_OF_ASC_NODE = 160.9010
ARG_OF_PERICENTER = 192.7020
MEAN_ANOMALY   = 162.5222

EPHEMERIS_TYPE = 0
CLASSIFICATION_TYPE = U
NORAD_CAT_ID   = 3669
ELEMENT_SET_NO = 999
REV_AT_EPOCH   = 34273
BSTAR          = .20630061E-3
MEAN_MOTION_DOT = .298E-5
MEAN_MOTION_DDOT = 0

CCSDS_OMM_VERS = 2.0
CREATION_DATE  = 
ORIGINATOR     = 

OBJECT_NAME    = SERT 2
OBJECT_ID      = 1970-009A
CENTER_NAME    = EARTH
REF_FRAME      = TEME
TIME_SYSTEM    = UTC
MEAN_ELEMENT_THEORY = SGP/SGP4

EPOCH          = 2026-01-17T14:49:08.175072
MEAN_MOTION    = 13.58723136
ECCENTRICITY   = .00042175
INCLINATION    = 99.2696
RA_OF_ASC_NODE = 323.5236
ARG_OF_PERICENTER = 302.5877
MEAN_ANOMALY   = 230.2599

EPHEMERIS_TYPE = 0
CLASSIFICATION_TYPE = U
NORAD_CAT_ID   = 4327
ELEMENT_SET_NO = 999
REV_AT_EPOCH   = 77295
BSTAR          = .4365177E-4
MEAN_MOTION_DOT = -.9E-7
MEAN_MOTION_DDOT = 0

CCSDS_OMM_VERS = 2.0
CREATION_DATE  = 
ORIGINATOR     = 

OBJECT_NAME    = SL-3 R/B
OBJECT_ID      = 1971-028B
CENTER_NAME    = EARTH
REF_FRAME      = TEME
TIME_SYSTEM    = UTC
MEAN_ELEMENT_THEORY = SGP/SGP4

EPOCH          = 2026-01-17T13:36:18.659232
MEAN_MOTION    = 15.56971900
ECCENTRICITY   = .00183314
INCLINATION    = 81.2389
RA_OF_ASC_NODE = 114.9778
ARG_OF_PERICENTER = 112.8306
MEAN_ANOMALY   = 247.4883

EPHEMERIS_TYPE = 0
CLASSIFICATION_TYPE = U
NORAD_CAT_ID   = 5118
ELEMENT_SET_NO = 999
REV_AT_EPOCH   = 98070
BSTAR          = .43842349E-3
MEAN_MOTION_DOT = .31951E-3
MEAN_MOTION_DDOT = 0

CCSDS_OMM_VERS = 2.0
CREATION_DATE  = 
ORIGINATOR     = 

OBJECT_NAME    = ASTEX 1
OBJECT_ID      = 1971-089A
CENTER_NAME    = EARTH
REF_FRAME      = TEME
TIME_SYSTEM    = UTC
MEAN_ELEMENT_THEORY = SGP/SGP4

EPOCH          = 2026-01-17T13:46:07.746528
MEAN_MOTION    = 14.50692788
ECCENTRICITY   = .00134672
INCLINATION    = 92.7157
RA_OF_ASC_NODE = 135.2176
ARG_OF_PERICENTER = 254.9740
MEAN_ANOMALY   = 104.9976

EPHEMERIS_TYPE = 0
CLASSIFICATION_TYPE = U
NORAD_CAT_ID   = 5560
ELEMENT_SET_NO = 999
REV_AT_EPOCH   = 85489
BSTAR          = .11112292E-3
MEAN_MOTION_DOT = .436E-5
MEAN_MOTION_DDOT = 0

CCSDS_OMM_VERS = 2.0
CREATION_DATE  = 
ORIGINATOR     = 

OBJECT_NAME    = SL-8 R/B
OBJECT_ID      = 1971-119B
CENTER_NAME    = EARTH
REF_FRAME      = TEME
TIME_SYSTEM    = UTC
MEAN_ELEMENT_THEORY = SGP/SGP4

EPOCH          = 2026-01-17T15:06:58.268448
MEAN_MOTION    = 14.36516893
ECCENTRICITY   = .05562244
INCLINATION    = 73.8882
RA_OF_ASC_NODE = 271.0648
ARG_OF_PERICENTER = 248.1098
MEAN_ANOMALY   = 106.0047

EPHEMERIS_TYPE = 0
CLASSIFICATION_TYPE = U
NORAD_CAT_ID   = 5730
ELEMENT_SET_NO = 999
REV_AT_EPOCH   = 64815
BSTAR          = .34371917E-3
MEAN_MOTION_DOT = .6592E-4
MEAN_MOTION_DDOT = 0

CCSDS_OMM_VERS = 2.0
CREATION_DATE  = 
ORIGINATOR     = 

OBJECT_NAME    = OAO 3 (COPERNICUS)
OBJECT_ID      = 1972-065A
CENTER_NAME    = EARTH
REF_FRAME      = TEME
TIME_SYSTEM    = UTC
MEAN_ELEMENT_THEORY = SGP/SGP4

EPOCH          = 2026-01-17T15:29:52.939104
MEAN_MOTION    = 14.59942897
ECCENTRICITY   = .0005883
INCLINATION    = 35.0040
RA_OF_ASC_NODE = 228.1229
ARG_OF_PERICENTER = 104.4432
MEAN_ANOMALY   = 292.8125

EPHEMERIS_TYPE = 0
CLASSIFICATION_TYPE = U
NORAD_CAT_ID   = 6153
ELEMENT_SET_NO = 999
REV_AT_EPOCH   = 83873
BSTAR          = .58052414E-4
MEAN_MOTION_DOT = .261E-5
MEAN_MOTION_DDOT = 0

