ATLAS CENTAUR 2         
1 00694U 63047A   26017.57186166  .00001245  00000+0  14065-3 0  9995
2 00694  30.3545 121.2805 0548405 349.8423   9.1473 14.11905750124395
THOR AGENA D R/B        
1 00733U 64002A   26017.58712345  .00000137  00000+0  66186-4 0  9997
2 00733  99.1221  28.1455 0033647  48.4111 311.9947 14.33982880230977
SL-3 R/B                
1 00877U 64053B   26017.63906028  .00000204  00000+0  63852-4 0  9993
2 00877  65.0772 120.9002 0076846 308.5278  50.8949 14.61307683259335
SL-8 R/B                
1 02802U 67045B   26017.64133766  .00000198  00000+0  62376-4 0  9991
2 02802  74.0109  83.4245 0062855 103.2452 257.5727 14.45573461 81648
SL-8 R/B                
1 03230U 68040B   26017.52512635  .00003118  00000+0  23429-3 0  9996
2 03230  74.0310  58.2066 0026314 254.8625 104.9653 15.02809745 82324
OAO 2                   
1 03597U 68110A   26017.52470817  .00000183  00000+0  54425-4 0  9995
2 03597  34.9913 190.8813 0005140 153.7656 206.3296 14.47268563 11688
ISIS 1                  
1 03669U 69009A   26017.37924448  .00000298  00000+0  20630-3 0  9997
2 03669  88.4527 160.9010 1707764 192.7020 162.5222 11.30379156342735
SERT 2                  
1 04327U 70009A   26017.61745573 -.00000009  00000+0  43652-4 0  9999
2 04327  99.2696 323.5236 0004217 302.5877 230.2599 13.58723136772958
SL-3 R/B                
1 05118U 71028B   26017.56688263  .00031951  00000+0  43842-3 0  9995
2 05118  81.2389 114.9778 0018331 112.8306 247.4883 15.56971900980705
ASTEX 1                 
1 05560U 71089A   26017.57370077  .00000436  00000+0  11112-3 0  9994
2 05560  92.7157 135.2176 0013467 254.9740 104.9976 14.50692788854896
SL-8 R/B                
1 05730U 71119B   26017.62984107  .00006592  00000+0  34372-3 0  9990
2 05730  73.8882 271.0648 0556224 248.1098 106.0047 14.36516893648155
OAO 3 (COPERNICUS)      
1 06153U 72065A   26017.64575161  .00000261  00000+0  58052-4 0  9998
2 06153  35.0040 228.1229 0005883 104.4432 292.8125 14.59942897838733
